ONEWEB-0656             
1 55817U 23029X   25093.43593006  .00000115  00000+0  25020-3 0  9999
2 55817  87.9336   1.9535 0001865  94.8478 265.2869 13.20774388103103
ONEWEB-0657             
1 55818U 23029Y   25093.56302895 -.00000044  00000+0 -14096-3 0  9992
2 55818  87.9247  32.3647 0001205  98.5315 261.5955 13.19727792100923
ONEWEB-0658             
1 55819U 23029Z   25093.33083298 -.00000015  00000+0 -70534-4 0  9999
2 55819  87.9249  32.3447 0001825  63.1832 296.9487 13.19726764100902
ONEWEB-0660             
1 55820U 23029AA  25093.54645619  .00000221  00000+0  56144-3 0  9992
2 55820  87.9092  17.1096 0002154  71.7402 288.3962 13.14504139101645
ONEWEB-0661             
1 55821U 23029AB  25093.80968778 -.00000202  00000+0 -58025-3 0  9997
2 55821  87.9094  17.1272 0002222  74.9519 285.1856 13.14504248102351
ONEWEB-0662             
1 55822U 23029AC  25093.76845844  .00000193  00000+0  48618-3 0  9995
2 55822  87.9095  17.1424 0002129  70.7687 289.3673 13.14503690102418
ONEWEB-0663             
1 55823U 23029AD  25093.49638746 -.00000020  00000+0 -81031-4 0  9995
2 55823  87.9335   1.9982 0002101  68.6860 291.4498 13.20831459103105
ONEWEB-0664             
1 55824U 23029AE  25093.49904207  .00000032  00000+0  46681-4 0  9997
2 55824  87.9336   2.0170 0002227  85.1754 274.9634 13.20769850103106
